{
  "type": "FeatureCollection",
  "features": [
    {
      "type": "Feature",
      "properties": {
        "norad_id": 66617,
        "name": "STARLINK-35940",
        "group": "last-30-days",
        "lat": -32.999043171161304,
        "lon": 77.27251330333903,
        "alt_km": 331.5163551039668,
        "timestamp": "2025-12-04T09:47:36.303673+00:00",
        "meta_object_name": "STARLINK-35940",
        "meta_object_id": "2025-271A",
        "meta_epoch": "2025-12-03T22:00:03.000096",
        "meta_mean_motion": 15.82715545,
        "meta_eccentricity": 6.658e-05,
        "meta_inclination": 53.1573,
        "meta_ra_of_asc_node": 230.6018,
        "meta_arg_of_pericenter": 97.8995,
        "meta_mean_anomaly": 205.0209,
        "meta_ephemeris_type": 0,
        "meta_classification_type": "U",
        "meta_norad_cat_id": 66617,
        "meta_element_set_no": 999,
        "meta_rev_at_epoch": 282,
        "meta_bstar": -0.0076253254,
        "meta_mean_motion_dot": -0.01453907,
        "meta_mean_motion_ddot": 0,
        "tle_line1": "1 66617U 25271A   25337.91670139 -.01453907  00000+0 -76253-2 0  9994",
        "tle_line2": "2 66617  53.1573 230.6018 0000665  97.8995 205.0209 15.82715545  2829"
      },
      "geometry": {
        "type": "Point",
        "coordinates": [
          77.27251330333903,
          -32.999043171161304
        ]
      }
    },
    {
      "type": "Feature",
      "properties": {
        "norad_id": 66618,
        "name": "STARLINK-35970",
        "group": "last-30-days",
        "lat": -46.39202295241498,
        "lon": 176.060429585677,
        "alt_km": 338.7709146577463,
        "timestamp": "2025-12-04T09:47:36.303686+00:00",
        "meta_object_name": "STARLINK-35970",
        "meta_object_id": "2025-271B",
        "meta_epoch": "2025-12-03T22:00:03.000096",
        "meta_mean_motion": 15.81308785,
        "meta_eccentricity": 7.147e-05,
        "meta_inclination": 53.1565,
        "meta_ra_of_asc_node": 230.4436,
        "meta_arg_of_pericenter": 93.975,
        "meta_mean_anomaly": 284.6242,
        "meta_ephemeris_type": 0,
        "meta_classification_type": "U",
        "meta_norad_cat_id": 66618,
        "meta_element_set_no": 999,
        "meta_rev_at_epoch": 282,
        "meta_bstar": -0.012834203,
        "meta_mean_motion_dot": -0.02253809,
        "meta_mean_motion_ddot": 0,
        "tle_line1": "1 66618U 25271B   25337.91670139 -.02253809  00000+0 -12834-1 0  9999",
        "tle_line2": "2 66618  53.1565 230.4436 0000714  93.9750 284.6242 15.81308785  2827"
      },
      "geometry": {
        "type": "Point",
        "coordinates": [
          176.060429585677,
          -46.39202295241498
        ]
      }
    },
    {
      "type": "Feature",
      "properties": {
        "norad_id": 66619,
        "name": "STARLINK-35951",
        "group": "last-30-days",
        "lat": -38.90665829908282,
        "lon": 85.35706548645825,
        "alt_km": 332.1116521924705,
        "timestamp": "2025-12-04T09:47:36.303696+00:00",
        "meta_object_name": "STARLINK-35951",
        "meta_object_id": "2025-271C",
        "meta_epoch": "2025-12-03T22:00:03.000096",
        "meta_mean_motion": 15.82737362,
        "meta_eccentricity": 6.716e-05,
        "meta_inclination": 53.157,
        "meta_ra_of_asc_node": 230.5831,
        "meta_arg_of_pericenter": 101.8066,
        "meta_mean_anomaly": 210.0039,
        "meta_ephemeris_type": 0,
        "meta_classification_type": "U",
        "meta_norad_cat_id": 66619,
        "meta_element_set_no": 999,
        "meta_rev_at_epoch": 282,
        "meta_bstar": -0.0081572283,
        "meta_mean_motion_dot": -0.01544371,
        "meta_mean_motion_ddot": 0,
        "tle_line1": "1 66619U 25271C   25337.91670139 -.01544371  00000+0 -81572-2 0  9992",
        "tle_line2": "2 66619  53.1570 230.5831 0000671 101.8066 210.0039 15.82737362  2820"
      },
      "geometry": {
        "type": "Point",
        "coordinates": [
          85.35706548645825,
          -38.90665829908282
        ]
      }
    },
    {
      "type": "Feature",
      "properties": {
        "norad_id": 66620,
        "name": "STARLINK-35936",
        "group": "last-30-days",
        "lat": -34.48629237124852,
        "lon": 79.13201929175295,
        "alt_km": 331.65290381798604,
        "timestamp": "2025-12-04T09:47:36.303707+00:00",
        "meta_object_name": "STARLINK-35936",
        "meta_object_id": "2025-271D",
        "meta_epoch": "2025-12-03T22:00:03.000096",
        "meta_mean_motion": 15.82729198,
        "meta_eccentricity": 6.4e-05,
        "meta_inclination": 53.1572,
        "meta_ra_of_asc_node": 230.5973,
        "meta_arg_of_pericenter": 97.0279,
        "meta_mean_anomaly": 208.0431,
        "meta_ephemeris_type": 0,
        "meta_classification_type": "U",
        "meta_norad_cat_id": 66620,
        "meta_element_set_no": 999,
        "meta_rev_at_epoch": 282,
        "meta_bstar": -0.007752868,
        "meta_mean_motion_dot": -0.01476233,
        "meta_mean_motion_ddot": 0,
        "tle_line1": "1 66620U 25271D   25337.91670139 -.01476233  00000+0 -77529-2 0  9992",
        "tle_line2": "2 66620  53.1572 230.5973 0000640  97.0279 208.0431 15.82729198  2820"
      },
      "geometry": {
        "type": "Point",
        "coordinates": [
          79.13201929175295,
          -34.48629237124852
        ]
      }
    },
    {
      "type": "Feature",
      "properties": {
        "norad_id": 66621,
        "name": "STARLINK-35847",
        "group": "last-30-days",
        "lat": -43.69402416384694,
        "lon": -177.7860256511941,
        "alt_km": 340.0037830374131,
        "timestamp": "2025-12-04T09:47:36.303717+00:00",
        "meta_object_name": "STARLINK-35847",
        "meta_object_id": "2025-271E",
        "meta_epoch": "2025-12-03T22:00:03.000096",
        "meta_mean_motion": 15.80957471,
        "meta_eccentricity": 7.332e-05,
        "meta_inclination": 53.1564,
        "meta_ra_of_asc_node": 230.4315,
        "meta_arg_of_pericenter": 104.6611,
        "meta_mean_anomaly": 279.779,
        "meta_ephemeris_type": 0,
        "meta_classification_type": "U",
        "meta_norad_cat_id": 66621,
        "meta_element_set_no": 999,
        "meta_rev_at_epoch": 282,
        "meta_bstar": -0.013604117,
        "meta_mean_motion_dot": -0.02336764,
        "meta_mean_motion_ddot": 0,
        "tle_line1": "1 66621U 25271E   25337.91670139 -.02336764  00000+0 -13604-1 0  9991",
        "tle_line2": "2 66621  53.1564 230.4315 0000733 104.6611 279.7790 15.80957471  2827"
      },
      "geometry": {
        "type": "Point",
        "coordinates": [
          -177.7860256511941,
          -43.69402416384694
        ]
      }
    },
    {
      "type": "Feature",
      "properties": {
        "norad_id": 66622,
        "name": "STARLINK-35950",
        "group": "last-30-days",
        "lat": -40.433649409907375,
        "lon": 87.82096317787237,
        "alt_km": 332.33345239505707,
        "timestamp": "2025-12-04T09:47:36.303748+00:00",
        "meta_object_name": "STARLINK-35950",
        "meta_object_id": "2025-271F",
        "meta_epoch": "2025-12-03T22:00:03.000096",
        "meta_mean_motion": 15.82708293,
        "meta_eccentricity": 5.052e-05,
        "meta_inclination": 53.157,
        "meta_ra_of_asc_node": 230.5778,
        "meta_arg_of_pericenter": 85.6752,
        "meta_mean_anomaly": 228.6417,
        "meta_ephemeris_type": 0,
        "meta_classification_type": "U",
        "meta_norad_cat_id": 66622,
        "meta_element_set_no": 999,
        "meta_rev_at_epoch": 282,
        "meta_bstar": -0.0082242808,
        "meta_mean_motion_dot": -0.01553496,
        "meta_mean_motion_ddot": 0,
        "tle_line1": "1 66622U 25271F   25337.91670139 -.01553496  00000+0 -82243-2 0  9990",
        "tle_line2": "2 66622  53.1570 230.5778 0000505  85.6752 228.6417 15.82708293  2827"
      },
      "geometry": {
        "type": "Point",
        "coordinates": [
          87.82096317787237,
          -40.433649409907375
        ]
      }
    },
    {
      "type": "Feature",
      "properties": {
        "norad_id": 66623,
        "name": "STARLINK-35920",
        "group": "last-30-days",
        "lat": -42.84409317727116,
        "lon": 92.1625490614214,
        "alt_km": 332.5067073143764,
        "timestamp": "2025-12-04T09:47:36.303767+00:00",
        "meta_object_name": "STARLINK-35920",
        "meta_object_id": "2025-271G",
        "meta_epoch": "2025-12-03T22:00:03.000096",
        "meta_mean_motion": 15.82724781,
        "meta_eccentricity": 5.97e-05,
        "meta_inclination": 53.1569,
        "meta_ra_of_asc_node": 230.5694,
        "meta_arg_of_pericenter": 84.8428,
        "meta_mean_anomaly": 233.5113,
        "meta_ephemeris_type": 0,
        "meta_classification_type": "U",
        "meta_norad_cat_id": 66623,
        "meta_element_set_no": 999,
        "meta_rev_at_epoch": 282,
        "meta_bstar": -0.0082960358,
        "meta_mean_motion_dot": -0.01566498,
        "meta_mean_motion_ddot": 0,
        "tle_line1": "1 66623U 25271G   25337.91670139 -.01566498  00000+0 -82960-2 0  9993",
        "tle_line2": "2 66623  53.1569 230.5694 0000597  84.8428 233.5113 15.82724781  2823"
      },
      "geometry": {
        "type": "Point",
        "coordinates": [
          92.1625490614214,
          -42.84409317727116
        ]
      }
    }
  ]
}